STARLINK-3625           
1 51777U 22017K   26166.96254973  .00000408  00000+0  43724-4 0  9990
2 51777  53.1593 257.8382 0001043  92.4157 267.6954 15.08829840237439
STARLINK-3615           
1 51778U 22017L   26166.50249474  .00000335  00000+0  39170-4 0  9990
2 51778  53.1596 249.8086 0001278  93.8433 266.2704 15.08834480237329
STARLINK-3611           
1 51779U 22017M   26166.56144416  .00001886  00000+0  13657-3 0  9990
2 51779  53.1602 259.7185 0001207  91.2600 268.8530 15.08829405237346
STARLINK-3617           
1 51780U 22017N   26166.54575224 -.00000987  00000+0 -43954-4 0  9992
2 51780  53.1628 259.7305 0001350  91.6732 268.4414 15.08832230237199
STARLINK-3580           
1 51781U 22017P   26166.88063008 -.00000330  00000+0 -26459-5 0  9996
2 51781  53.1606 258.1964 0001228  84.6468 275.4664 15.08829746237241
STARLINK-3616           
1 51782U 22017Q   26166.91668981  .00001879  00000+0  12362-3 0  9995
2 51782  53.1599 268.1792 0001021  68.7758 316.4808 15.12504440  5840
STARLINK-3628           
1 51783U 22017R   26166.91668981 -.00005105  00000+0 -26100-3 0  9999
2 51783  53.1597 258.0726 0001793  97.0523  99.3235 15.14081748  5805
STARLINK-3632           
1 51784U 22017S   26166.83081215  .00095008  00000+0  57745-2 0  9997
2 51784  53.1601 268.4471 0001424  95.4403 264.6751 15.09673872237091
STARLINK-3646           
1 51785U 22017T   26166.91668981  .00001133  00000+0  81376-4 0  9993
2 51785  53.1594 258.0218 0002119  72.0104 170.8618 15.12473695  5793
STARLINK-3638           
1 51786U 22017U   26166.55955626 -.00001173  00000+0 -55640-4 0  9990
2 51786  53.1603 269.6791 0001282  87.2568 272.8570 15.08822229237053
STARLINK-3619           
1 51787U 22017V   26166.91668981  .00005256  00000+0  28763-3 0  9995
2 51787  53.1605 267.9597 0002294  57.0648  61.1623 15.15812894  5752
STARLINK-3641           
1 51788U 22017W   26166.54851371  .00001155  00000+0  90681-4 0  9995
2 51788  53.1590 269.7302 0001241  78.4491 281.6640 15.08831983238695
STARLINK-3639           
1 51789U 22017X   26166.56323312 -.00002990  00000+0 -16984-3 0  9990
2 51789  53.1603 269.6616 0001441  91.3060 268.8097 15.08837721237054
STARLINK-3631           
1 51790U 22017Y   26166.80642188  .00007485  00000+0  48191-3 0  9991
2 51790  53.2131 268.6159 0000880 117.7672 242.3410 15.09292525238787
STARLINK-3602           
1 51791U 22017Z   26166.55587199  .00000524  00000+0  51043-4 0  9992
2 51791  53.1591 269.6951 0001186  88.5425 271.5702 15.08831961238699
STARLINK-3626           
1 51792U 22017AA  26166.60372408  .00001160  00000+0  90971-4 0  9994
2 51792  53.1598 269.4791 0001036  88.7596 271.3514 15.08826712238756
STARLINK-3633           
1 51793U 22017AB  26166.82657340  .01164959  11775-4  65199-3 0  9996
2 51793  53.2057 220.2396 0007409 354.3118   5.7836 16.18590807239466
STARLINK-3573           
1 51794U 22017AC  26166.91668981  .00533282  00000+0  33955-2 0  9996
2 51794  53.2167 253.1621 0001120  46.2559 336.7831 15.74357089  5811
STARLINK-3586           
1 51795U 22017AD  26166.55219465  .00001896  00000+0  13708-3 0  9992
2 51795  53.1601 269.9104 0001181  81.5965 278.5160 15.08861442238697
STARLINK-3634           
1 51798U 22017AG  26166.91668981  .00002537  00000+0  16707-3 0  9991
2 51798  53.1597 268.0580 0001520  74.3531 314.3164 15.11106763  5853
STARLINK-3637           
1 51799U 22017AH  26166.91668981  .00000779  00000+0  62051-4 0  9992
2 51799  53.1590 268.0363 0000838  54.0107 284.7750 15.11915515  5798
STARLINK-3592           
1 51801U 22017AK  26166.58899845  .00000433  00000+0  45301-4 0  9990
2 51801  53.1599 269.5416 0001327  62.8396 297.2731 15.08833399238709
STARLINK-3544           
1 51803U 22017AM  26166.91668981  .00004000  00000+0  24677-3 0  9990
2 51803  53.1603 268.0324 0002394  85.0714 336.5388 15.12081403  5753
STARLINK-3601           
1 51804U 22017AN  26166.92203403 -.00000037  00000+0  15752-4 0  9998
2 51804  53.1600 248.0504 0001029  92.0189 268.0920 15.08829249238984
STARLINK-3605           
1 51805U 22017AP  26166.92572674  .00000139  00000+0  26827-4 0  9995
2 51805  53.1608 248.1107 0000612  36.1047 323.9986 15.08828180239079
STARLINK-3606           
1 51807U 22017AR  26166.54207447  .00001387  00000+0  10527-3 0  9993
2 51807  53.1608 259.7575 0000921  90.9929 269.1168 15.08822000238884
STARLINK-3609           
1 51808U 22017AS  26166.52736747  .00002773  00000+0  19236-3 0  9998
2 51808  53.1595 259.8247 0000872  97.1794 262.9297 15.08816774238730
STARLINK-3607           
1 51809U 22017AT  26166.53471200 -.00000335  00000+0 -29307-5 0  9996
2 51809  53.1604 259.7521 0001151  81.3084 278.8038 15.08827825238833
STARLINK-3613           
1 51810U 22017AU  26166.50621916 -.00002334  00000+0 -12860-3 0  9991
2 51810  53.1598 250.1393 0001192  91.2280 268.8848 15.08838340238845
STARLINK-3569           
1 51811U 22017AV  26166.53103239 -.00000307  00000+0 -11704-5 0  9994
2 51811  53.1605 259.8068 0001168  84.9164 275.1961 15.08832027238734
