OBJECT_NAME,OBJECT_ID,EPOCH,MEAN_MOTION,ECCENTRICITY,INCLINATION,RA_OF_ASC_NODE,ARG_OF_PERICENTER,MEAN_ANOMALY,EPHEMERIS_TYPE,CLASSIFICATION_TYPE,NORAD_CAT_ID,ELEMENT_SET_NO,REV_AT_EPOCH,BSTAR,MEAN_MOTION_DOT,MEAN_MOTION_DDOT
STARLINK-3625,2022-017K,2026-06-15T23:06:04.296672,15.08829840,.00010431,53.1593,257.8382,92.4157,267.6954,0,U,51777,999,23743,.43724225E-4,.408E-5,0
STARLINK-3615,2022-017L,2026-06-15T12:03:35.545536,15.08834480,.00012787,53.1596,249.8086,93.8433,266.2704,0,U,51778,999,23732,.39170255E-4,.335E-5,0
STARLINK-3611,2022-017M,2026-06-15T13:28:28.775424,15.08829405,.00012078,53.1602,259.7185,91.2600,268.8530,0,U,51779,999,23734,.13656679E-3,.1886E-4,0
STARLINK-3617,2022-017N,2026-06-15T13:05:52.993536,15.08832230,.00013503,53.1628,259.7305,91.6732,268.4414,0,U,51780,999,23719,-.43953546E-4,-.987E-5,0
STARLINK-3580,2022-017P,2026-06-15T21:08:06.438912,15.08829746,.00012289,53.1606,258.1964,84.6468,275.4664,0,U,51781,999,23724,-.2645852E-5,-.33E-5,0
STARLINK-3616,2022-017Q,2026-06-15T22:00:01.999584,15.12504440,.00010214,53.1599,268.1792,68.7758,316.4808,0,U,51782,999,584,.12361856E-3,.1879E-4,0
STARLINK-3628,2022-017R,2026-06-15T22:00:01.999584,15.14081748,.00017932,53.1597,258.0726,97.0523,99.3235,0,U,51783,999,580,-.26100186E-3,-.5105E-4,0
STARLINK-3632,2022-017S,2026-06-15T19:56:22.169760,15.09673872,.00014243,53.1601,268.4471,95.4403,264.6751,0,U,51784,999,23709,.57744927E-2,.95008E-3,0
STARLINK-3646,2022-017T,2026-06-15T22:00:01.999584,15.12473695,.0002119,53.1594,258.0218,72.0104,170.8618,0,U,51785,999,579,.81376396E-4,.1133E-4,0
STARLINK-3638,2022-017U,2026-06-15T13:25:45.660864,15.08822229,.00012823,53.1603,269.6791,87.2568,272.8570,0,U,51786,999,23705,-.55640355E-4,-.1173E-4,0
STARLINK-3619,2022-017V,2026-06-15T22:00:01.999584,15.15812894,.00022944,53.1605,267.9597,57.0648,61.1623,0,U,51787,999,575,.28762616E-3,.5256E-4,0
STARLINK-3641,2022-017W,2026-06-15T13:09:51.584544,15.08831983,.00012419,53.1590,269.7302,78.4491,281.6640,0,U,51788,999,23869,.90681009E-4,.1155E-4,0
STARLINK-3639,2022-017X,2026-06-15T13:31:03.341568,15.08837721,.00014411,53.1603,269.6616,91.3060,268.8097,0,U,51789,999,23705,-.16984257E-3,-.299E-4,0
STARLINK-3631,2022-017Y,2026-06-15T19:21:14.850432,15.09292525,.00008808,53.2131,268.6159,117.7672,242.3410,0,U,51790,999,23878,.48190911E-3,.7485E-4,0
STARLINK-3602,2022-017Z,2026-06-15T13:20:27.339936,15.08831961,.00011869,53.1591,269.6951,88.5425,271.5702,0,U,51791,999,23869,.51043331E-4,.524E-5,0
STARLINK-3626,2022-017AA,2026-06-15T14:29:21.760512,15.08826712,.00010361,53.1598,269.4791,88.7596,271.3514,0,U,51792,999,23875,.9097095E-4,.116E-4,0
STARLINK-3633,2022-017AB,2026-06-15T19:50:15.941760,16.18590807,.00074098,53.2057,220.2396,354.3118,5.7836,0,U,51793,999,23946,.65198656E-3,.1164959E-1,.11774745E-4
STARLINK-3573,2022-017AC,2026-06-15T22:00:01.999584,15.74357089,.00011201,53.2167,253.1621,46.2559,336.7831,0,U,51794,999,581,.33954703E-2,.533282E-2,0
STARLINK-3586,2022-017AD,2026-06-15T13:15:09.617760,15.08861442,.00011811,53.1601,269.9104,81.5965,278.5160,0,U,51795,999,23869,.13707847E-3,.1896E-4,0
STARLINK-3634,2022-017AG,2026-06-15T22:00:01.999584,15.11106763,.000152,53.1597,268.0580,74.3531,314.3164,0,U,51798,999,585,.1670707E-3,.2537E-4,0
STARLINK-3637,2022-017AH,2026-06-15T22:00:01.999584,15.11915515,.00008383,53.1590,268.0363,54.0107,284.7750,0,U,51799,999,579,.62050622E-4,.779E-5,0
STARLINK-3592,2022-017AK,2026-06-15T14:08:09.466080,15.08833399,.00013277,53.1599,269.5416,62.8396,297.2731,0,U,51801,999,23870,.45301354E-4,.433E-5,0
STARLINK-3544,2022-017AM,2026-06-15T22:00:01.999584,15.12081403,.00023947,53.1603,268.0324,85.0714,336.5388,0,U,51803,999,575,.2467677E-3,.4E-4,0
STARLINK-3601,2022-017AN,2026-06-15T22:07:43.740192,15.08829249,.00010298,53.1600,248.0504,92.0189,268.0920,0,U,51804,999,23898,.15752345E-4,-.37E-6,0
STARLINK-3605,2022-017AP,2026-06-15T22:13:02.790336,15.08828180,.0000612,53.1608,248.1107,36.1047,323.9986,0,U,51805,999,23907,.26827217E-4,.139E-5,0
STARLINK-3606,2022-017AR,2026-06-15T13:00:35.234208,15.08822000,.00009213,53.1608,259.7575,90.9929,269.1168,0,U,51807,999,23888,.10526775E-3,.1387E-4,0
STARLINK-3609,2022-017AS,2026-06-15T12:39:24.549408,15.08816774,.00008723,53.1595,259.8247,97.1794,262.9297,0,U,51808,999,23873,.19236237E-3,.2773E-4,0
STARLINK-3607,2022-017AT,2026-06-15T12:49:59.116800,15.08827825,.00011519,53.1604,259.7521,81.3084,278.8038,0,U,51809,999,23883,-.2930682E-5,-.335E-5,0
STARLINK-3613,2022-017AU,2026-06-15T12:08:57.335424,15.08838340,.00011924,53.1598,250.1393,91.2280,268.8848,0,U,51810,999,23884,-.12860449E-3,-.2334E-4,0
STARLINK-3569,2022-017AV,2026-06-15T12:44:41.198496,15.08832027,.00011681,53.1605,259.8068,84.9164,275.1961,0,U,51811,999,23873,-.1170372E-5,-.307E-5,0
